[
    {
        "CCSDS_OMM_VERS": "3.0",
        "COMMENT": "GENERATED VIA SPACE-TRACK.ORG API",
        "CREATION_DATE": "2025-03-02T18:08:23",
        "ORIGINATOR": "18 SPCS",
        "OBJECT_NAME": "GALILEO 31 (10D)",
        "OBJECT_ID": "2024-167B",
        "CENTER_NAME": "EARTH",
        "REF_FRAME": "TEME",
        "TIME_SYSTEM": "UTC",
        "MEAN_ELEMENT_THEORY": "SGP4",
        "EPOCH": "2025-03-02T13:03:08.432640",
        "MEAN_MOTION": "1.70473731",
        "ECCENTRICITY": "0.00021050",
        "INCLINATION": "55.3442",
        "RA_OF_ASC_NODE": "234.2568",
        "ARG_OF_PERICENTER": "116.9913",
        "MEAN_ANOMALY": "284.4645",
        "EPHEMERIS_TYPE": "0",
        "CLASSIFICATION_TYPE": "U",
        "NORAD_CAT_ID": "61183",
        "ELEMENT_SET_NO": "999",
        "REV_AT_EPOCH": "281",
        "BSTAR": "0.00000000000000",
        "MEAN_MOTION_DOT": "0.00000048",
        "MEAN_MOTION_DDOT": "0.0000000000000",
        "SEMIMAJOR_AXIS": "29600.351",
        "PERIOD": "844.705",
        "APOAPSIS": "23228.447",
        "PERIAPSIS": "23215.985",
        "OBJECT_TYPE": "PAYLOAD",
        "RCS_SIZE": "LARGE",
        "COUNTRY_CODE": "ESA",
        "LAUNCH_DATE": "2024-09-17",
        "SITE": "AFETR",
        "DECAY_DATE": null,
        "FILE": "4657142",
        "GP_ID": "282098366",
        "TLE_LINE0": "0 GALILEO 31 (10D)",
        "TLE_LINE1": "1 61183U 24167B   25061.54384760  .00000048  00000-0  00000-0 0  9992",
        "TLE_LINE2": "2 61183  55.3442 234.2568 0002105 116.9913 284.4645  1.70473731  2819"
    }
]